{
    "CCSDS_OMM_VERS": "3.0",
    "COMMENT": "GENERATED VIA SPACE-TRACK.ORG API",
    "CREATION_DATE": "2025-11-24T07:26:19",
    "ORIGINATOR": "18 SPCS",
    "OBJECT_NAME": "BEIDOU 3M5",
    "OBJECT_ID": "2018-018A",
    "CENTER_NAME": "EARTH",
    "REF_FRAME": "TEME",
    "TIME_SYSTEM": "UTC",
    "MEAN_ELEMENT_THEORY": "SGP4",
    "EPOCH": "2025-11-23T13:08:17.401632",
    "MEAN_MOTION": "1.86231135",
    "ECCENTRICITY": "0.00039410",
    "INCLINATION": "56.4692",
    "RA_OF_ASC_NODE": "69.9400",
    "ARG_OF_PERICENTER": "20.2152",
    "MEAN_ANOMALY": "339.8030",
    "EPHEMERIS_TYPE": "0",
    "CLASSIFICATION_TYPE": "U",
    "NORAD_CAT_ID": "43207",
    "ELEMENT_SET_NO": "999",
    "REV_AT_EPOCH": "5291",
    "BSTAR": "0.00000000000000",
    "MEAN_MOTION_DOT": "-0.00000026",
    "MEAN_MOTION_DDOT": "0.0000000000000",
    "SEMIMAJOR_AXIS": "27906.175",
    "PERIOD": "773.233",
    "APOAPSIS": "21539.038",
    "PERIAPSIS": "21517.042",
    "OBJECT_TYPE": "PAYLOAD",
    "RCS_SIZE": "LARGE",
    "COUNTRY_CODE": "PRC",
    "LAUNCH_DATE": "2018-02-12",
    "SITE": "XSC",
    "DECAY_DATE": null,
    "FILE": "4896991",
    "GP_ID": "303366727",
    "TLE_LINE0": "0 BEIDOU 3M5",
    "TLE_LINE1": "1 43207U 18018A   25327.54742363 -.00000026  00000-0  00000+0 0  9995",
    "TLE_LINE2": "2 43207  56.4692  69.9400 0003941  20.2152 339.8030  1.86231135 52910"
}